{"fetched_at":"2026-07-19T17:31:52.627Z","source":"https://celestrak.org/NORAD/elements/gp.php?NAME=RCM&FORMAT=JSON","constellation":"rcm","records":[{"OBJECT_NAME":"RCM-1","OBJECT_ID":"2019-033A","EPOCH":"2026-07-19T07:47:41.374752","CLASSIFICATION_TYPE":"U","MEAN_MOTION":14.92590806,"ECCENTRICITY":0.0001517,"INCLINATION":97.7604,"RA_OF_ASC_NODE":207.3181,"ARG_OF_PERICENTER":93.2377,"MEAN_ANOMALY":328.0713,"EPHEMERIS_TYPE":0,"NORAD_CAT_ID":44322,"ELEMENT_SET_NO":999,"REV_AT_EPOCH":38687,"BSTAR":0.000048537918,"MEAN_MOTION_DOT":0.00000443,"MEAN_MOTION_DDOT":0},{"OBJECT_NAME":"RCM-3","OBJECT_ID":"2019-033B","EPOCH":"2026-07-19T06:27:18.313344","CLASSIFICATION_TYPE":"U","MEAN_MOTION":14.92588366,"ECCENTRICITY":0.0001531,"INCLINATION":97.76,"RA_OF_ASC_NODE":207.3572,"ARG_OF_PERICENTER":91.8118,"MEAN_ANOMALY":268.3276,"EPHEMERIS_TYPE":0,"NORAD_CAT_ID":44323,"ELEMENT_SET_NO":999,"REV_AT_EPOCH":38688,"BSTAR":-0.00002233597,"MEAN_MOTION_DOT":-0.00000285,"MEAN_MOTION_DDOT":0},{"OBJECT_NAME":"RCM-2","OBJECT_ID":"2019-033C","EPOCH":"2026-07-19T02:09:40.599072","CLASSIFICATION_TYPE":"U","MEAN_MOTION":14.92590016,"ECCENTRICITY":0.00015328,"INCLINATION":97.7605,"RA_OF_ASC_NODE":207.1313,"ARG_OF_PERICENTER":91.9674,"MEAN_ANOMALY":268.172,"EPHEMERIS_TYPE":0,"NORAD_CAT_ID":44324,"ELEMENT_SET_NO":999,"REV_AT_EPOCH":38684,"BSTAR":0.000048431396,"MEAN_MOTION_DOT":0.00000442,"MEAN_MOTION_DDOT":0}]}
