RCM-1                   
1 44322U 19033A   26200.32478443  .00000443  00000+0  48538-4 0  9998
2 44322  97.7604 207.3181 0001517  93.2377 328.0713 14.92590806386877
RCM-3                   
1 44323U 19033B   26200.26896196 -.00000285  00000+0 -22336-4 0  9995
2 44323  97.7600 207.3572 0001531  91.8118 268.3276 14.92588366386880
RCM-2                   
1 44324U 19033C   26200.09005323  .00000442  00000+0  48431-4 0  9998
2 44324  97.7605 207.1313 0001532  91.9674 268.1720 14.92590016386849
